QIANFAN-41              
1 62242U 24232F   25362.90813545  .00000090  00000+0  12039-3 0  9998
2 62242  89.0010  39.5655 0015423 139.3606 220.8700 13.50980906101431
QIANFAN-42              
1 62243U 24232G   25362.92915420  .00000412  00000+0  17139-3 0  9990
2 62243  89.0001  35.5072 0016204  39.1287 321.1074 14.24498336103671
QIANFAN-43              
1 62244U 24232H   25362.82992298  .00000081  00000+0  10718-3 0  9996
2 62244  89.0014  39.6394 0016810 144.8428 215.3836 13.50979786 70036
QIANFAN-44              
1 62245U 24232J   25362.89167001  .00000090  00000+0  11986-3 0  9998
2 62245  89.0012  39.4437 0015098 141.3570 218.8665 13.50982142101514
QIANFAN-45              
1 62246U 24232K   25362.85876656  .00000081  00000+0  10694-3 0  9993
2 62246  89.0016  39.5941 0015772 141.3485 218.8799 13.50978075101433
QIANFAN-46              
1 62247U 24232L   25362.88342503  .00000096  00000+0  13063-3 0  9995
2 62247  89.0012  39.6600 0015678 146.3438 213.8713 13.50979971101393
QIANFAN-47              
1 62248U 24232M   25362.88757966  .00000090  00000+0  11997-3 0  9997
2 62248  89.0008  39.5919 0016128 145.6991 214.5205 13.50980210101424
QIANFAN-48              
1 62249U 24232N   25362.92457681  .00000088  00000+0  11785-3 0  9996
2 62249  89.0012  39.5906 0018314 148.7477 211.4767 13.50981898101431
